LEMUR-2-AMANDA-SVANTE   
1 48269U 21034B   26068.77637527  .00030872  00000+0  11134-2 0  9996
2 48269  97.5829 144.8625 0002703 205.4721 154.6385 15.28469003265849
STARLINK-33544          
1 62281U 24237Q   26068.45706725  .00026175  00000+0  95687-3 0  9993
2 62281  42.9984 217.9074 0000635 208.5404 151.5412 15.27595386 71158
