[{"OBJECT_NAME":"LEMUR-2-AMANDA-SVANTE","OBJECT_ID":"2021-034B","EPOCH":"2026-03-09T18:37:58.823328","MEAN_MOTION":15.28469003,"ECCENTRICITY":0.00027027,"INCLINATION":97.5829,"RA_OF_ASC_NODE":144.8625,"ARG_OF_PERICENTER":205.4721,"MEAN_ANOMALY":154.6385,"EPHEMERIS_TYPE":0,"CLASSIFICATION_TYPE":"U","NORAD_CAT_ID":48269,"ELEMENT_SET_NO":999,"REV_AT_EPOCH":26584,"BSTAR":0.0011134246,"MEAN_MOTION_DOT":0.00030872,"MEAN_MOTION_DDOT":0},{"OBJECT_NAME":"STARLINK-33544","OBJECT_ID":"2024-237Q","EPOCH":"2026-03-09T10:58:10.610400","MEAN_MOTION":15.27595386,"ECCENTRICITY":6.358e-5,"INCLINATION":42.9984,"RA_OF_ASC_NODE":217.9074,"ARG_OF_PERICENTER":208.5404,"MEAN_ANOMALY":151.5412,"EPHEMERIS_TYPE":0,"CLASSIFICATION_TYPE":"U","NORAD_CAT_ID":62281,"ELEMENT_SET_NO":999,"REV_AT_EPOCH":7115,"BSTAR":0.00095687263,"MEAN_MOTION_DOT":0.00026175,"MEAN_MOTION_DDOT":0}]
